*******************************************************************************
Ephemeris / WWW_USER Sat Dec 17 20:11:22 2016 Pasadena, USA      / Horizons    
*******************************************************************************
Target body name: Moon (301)                      {source: DE431mx}
Center body name: Earth (399)                     {source: DE431mx}
Center-site name: (user defined site below)
*******************************************************************************
Start time      : A.D. 2018-Apr-01 00:00:00.0000 UT      
Stop  time      : A.D. 2018-Aug-02 00:00:00.0000 UT      
Step-size       : 2 minutes
*******************************************************************************
Target pole/equ : IAU_MOON                        {East-longitude +}
Target radii    : 1737.4 x 1737.4 x 1737.4 km     {Equator, meridian, pole}    
Center geodetic : 241.855000,34.1456000,0.0000000 {E-lon(deg),Lat(deg),Alt(km)}
Center cylindric: 241.855000,5284.21009,3559.8244 {E-lon(deg),Dxy(km),Dz(km)}
Center pole/equ : High-precision EOP model        {East-longitude +}
Center radii    : 6378.1 x 6378.1 x 6356.8 km     {Equator, meridian, pole}    
Target primary  : Earth
Vis. interferer : MOON (R_eq= 1737.400) km        {source: DE431mx}
Rel. light bend : Sun, EARTH                      {source: DE431mx}
Rel. lght bnd GM: 1.3271E+11, 3.9860E+05 km^3/s^2                              
Atmos refraction: NO (AIRLESS)
RA format       : HMS
Time format     : CAL 
RTS-only print  : NO       
EOP file        : eop.161216.p170309                                           
EOP coverage    : DATA-BASED 1962-JAN-20 TO 2016-DEC-16. PREDICTS-> 2017-MAR-08
Units conversion: 1 au= 149597870.700 km, c= 299792.458 km/s, 1 day= 86400.0 s 
Table cut-offs 1: Elevation (-90.0deg=NO ),Airmass (>38.000=NO), Daylight (NO )
Table cut-offs 2: Solar Elongation (  0.0,180.0=NO ),Local Hour Angle( 0.0=NO )
*******************************************************************************
 Date__(UT)__HR:MN     Azi_(a-appr)_Elev
****************************************
$$SOE
 2018-May-21 22:24 *m   99.3560  37.1106
 2018-May-21 22:26 *m   99.6838  37.5054
 2018-May-21 22:28 *m  100.0143  37.8998
 2018-May-21 22:30 *m  100.3473  38.2939
 2018-May-21 22:32 *m  100.6831  38.6876
 2018-May-21 22:34 *m  101.0216  39.0808
 2018-May-21 22:36 *m  101.3629  39.4737
 2018-May-21 22:38 *m  101.7072  39.8661
 2018-May-21 22:40 *m  102.0545  40.2580
 2018-May-21 22:42 *m  102.4049  40.6494
 2018-May-21 22:44 *m  102.7584  41.0404
 2018-May-21 22:46 *m  103.1152  41.4308
 2018-May-21 22:48 *m  103.4753  41.8206
 2018-May-21 22:50 *m  103.8389  42.2099
 2018-May-21 22:52 *m  104.2060  42.5986
 2018-May-21 22:54 *m  104.5767  42.9867
 2018-May-21 22:56 *m  104.9511  43.3742
 2018-May-21 22:58 *m  105.3293  43.7609
 2018-May-21 23:00 *m  105.7115  44.1470
 2018-May-21 23:02 *m  106.0977  44.5324
 2018-May-21 23:04 *m  106.4880  44.9171
 2018-May-21 23:06 *m  106.8825  45.3009
 2018-May-21 23:08 *m  107.2814  45.6840
 2018-May-21 23:10 *m  107.6848  46.0663
 2018-May-21 23:12 *m  108.0928  46.4477
 2018-May-21 23:14 *m  108.5055  46.8282
 2018-May-21 23:16 *m  108.9230  47.2079
 2018-May-21 23:18 *m  109.3455  47.5865
 2018-May-21 23:20 *m  109.7731  47.9642
 2018-May-21 23:22 *m  110.2059  48.3409
 2018-May-21 23:24 *m  110.6442  48.7165
 2018-May-21 23:26 *m  111.0879  49.0911
 2018-May-21 23:28 *m  111.5374  49.4645
 2018-May-21 23:30 *m  111.9926  49.8367
 2018-May-21 23:32 *m  112.4538  50.2078
 2018-May-21 23:34 *m  112.9212  50.5776
 2018-May-21 23:36 *m  113.3949  50.9461
 2018-May-21 23:38 *m  113.8750  51.3133
 2018-May-21 23:40 *m  114.3618  51.6792
 2018-May-21 23:42 *m  114.8554  52.0436
 2018-May-21 23:44 *m  115.3560  52.4065
 2018-May-21 23:46 *m  115.8638  52.7679
 2018-May-21 23:48 *m  116.3790  53.1278
 2018-May-21 23:50 *m  116.9017  53.4860
 2018-May-21 23:52 *m  117.4322  53.8425
 2018-May-21 23:54 *m  117.9707  54.1973
 2018-May-21 23:56 *m  118.5173  54.5503
 2018-May-21 23:58 *m  119.0724  54.9014
 2018-May-22 00:00 *m  119.6360  55.2506
 2018-May-22 00:02 *m  120.2085  55.5979
 2018-May-22 00:04 *m  120.7900  55.9430
 2018-May-22 00:06 *m  121.3809  56.2861
 2018-May-22 00:08 *m  121.9812  56.6269
 2018-May-22 00:10 *m  122.5914  56.9655
 2018-May-22 00:12 *m  123.2115  57.3017
 2018-May-22 00:14 *m  123.8419  57.6355
 2018-May-22 00:16 *m  124.4828  57.9668
 2018-May-22 00:18 *m  125.1344  58.2955
 2018-May-22 00:20 *m  125.7971  58.6215
 2018-May-22 00:22 *m  126.4710  58.9447
 2018-May-22 00:24 *m  127.1565  59.2650
 2018-May-22 00:26 *m  127.8538  59.5824
 2018-May-22 00:28 *m  128.5631  59.8967
 2018-May-22 00:30 *m  129.2848  60.2079
 2018-May-22 00:32 *m  130.0191  60.5157
 2018-May-22 00:34 *m  130.7663  60.8202
 2018-May-22 00:36 *m  131.5266  61.1212
 2018-May-22 00:38 *m  132.3003  61.4186
 2018-May-22 00:40 *m  133.0876  61.7122
 2018-May-22 00:42 *m  133.8889  62.0020
 2018-May-22 00:44 *m  134.7043  62.2878
 2018-May-22 00:46 *m  135.5341  62.5694
 2018-May-22 00:48 *m  136.3786  62.8468
 2018-May-22 00:50 *m  137.2379  63.1199
 2018-May-22 00:52 *m  138.1123  63.3884
 2018-May-22 00:54 *m  139.0020  63.6522
 2018-May-22 00:56 *m  139.9071  63.9112
 2018-May-22 00:58 *m  140.8279  64.1652
 2018-May-22 01:00 *m  141.7645  64.4142
 2018-May-22 01:02 *m  142.7170  64.6578
 2018-May-22 01:04 *m  143.6856  64.8960
 2018-May-22 01:06 *m  144.6703  65.1286
 2018-May-22 01:08 *m  145.6712  65.3555
 2018-May-22 01:10 *m  146.6883  65.5764
 2018-May-22 01:12 *m  147.7216  65.7912
 2018-May-22 01:14 *m  148.7712  65.9998
 2018-May-22 01:16 *m  149.8368  66.2019
 2018-May-22 01:18 *m  150.9185  66.3974
 2018-May-22 01:20 *m  152.0160  66.5862
 2018-May-22 01:22 *m  153.1293  66.7680
 2018-May-22 01:24 *m  154.2579  66.9427
 2018-May-22 01:26 *m  155.4018  67.1102
 2018-May-22 01:28 *m  156.5604  67.2702
 2018-May-22 01:30 *m  157.7336  67.4226
 2018-May-22 01:32 *m  158.9208  67.5672
 2018-May-22 01:34 *m  160.1215  67.7039
 2018-May-22 01:36 *m  161.3352  67.8326
 2018-May-22 01:38 *m  162.5614  67.9531
 2018-May-22 01:40 *m  163.7994  68.0652
 2018-May-22 01:42 *m  165.0486  68.1688
 2018-May-22 01:44 *m  166.3081  68.2639
 2018-May-22 01:46 *m  167.5773  68.3502
 2018-May-22 01:48 *m  168.8553  68.4277
 2018-May-22 01:50 *m  170.1412  68.4963
 2018-May-22 01:52 *m  171.4341  68.5559
 2018-May-22 01:54 *m  172.7331  68.6064
 2018-May-22 01:56 *m  174.0373  68.6477
 2018-May-22 01:58 *m  175.3455  68.6798
 2018-May-22 02:00 *m  176.6569  68.7027
 2018-May-22 02:02 *m  177.9704  68.7163
 2018-May-22 02:04 *t  179.2850  68.7206
 2018-May-22 02:06 *m  180.5995  68.7156
 2018-May-22 02:08 *m  181.9129  68.7013
 2018-May-22 02:10 *m  183.2243  68.6777
 2018-May-22 02:12 *m  184.5325  68.6449
 2018-May-22 02:14 *m  185.8366  68.6028
 2018-May-22 02:16 *m  187.1355  68.5516
 2018-May-22 02:18 *m  188.4283  68.4913
 2018-May-22 02:20 *m  189.7141  68.4219
 2018-May-22 02:22 *m  190.9919  68.3437
 2018-May-22 02:24 *m  192.2609  68.2566
 2018-May-22 02:26 *m  193.5203  68.1608
 2018-May-22 02:28 *m  194.7693  68.0563
 2018-May-22 02:30 *m  196.0070  67.9434
 2018-May-22 02:32 *m  197.2330  67.8222
 2018-May-22 02:34 *m  198.4465  67.6927
 2018-May-22 02:36 *m  199.6470  67.5551
 2018-May-22 02:38 *m  200.8338  67.4096
 2018-May-22 02:40 *m  202.0066  67.2563
 2018-May-22 02:42 *m  203.1650  67.0954
 2018-May-22 02:44 *m  204.3084  66.9270
 2018-May-22 02:46 *m  205.4367  66.7514
 2018-May-22 02:48 *m  206.5495  66.5686
 2018-May-22 02:50 *m  207.6466  66.3788
 2018-May-22 02:52 Cm  208.7278  66.1823
 2018-May-22 02:54 Cm  209.7930  65.9792
 2018-May-22 02:56 Cm  210.8420  65.7695
 2018-May-22 02:58 Cm  211.8748  65.5536
 2018-May-22 03:00 Cm  212.8914  65.3316
 2018-May-22 03:02 Cm  213.8917  65.1037
 2018-May-22 03:04 Cm  214.8758  64.8699
 2018-May-22 03:06 Cm  215.8437  64.6305
 2018-May-22 03:08 Cm  216.7955  64.3857
 2018-May-22 03:10 Cm  217.7314  64.1355
 2018-May-22 03:12 Cm  218.6515  63.8802
 2018-May-22 03:14 Cm  219.5559  63.6199
 2018-May-22 03:16 Cm  220.4448  63.3548
 2018-May-22 03:18 Cm  221.3184  63.0849
 2018-May-22 03:20 Cm  222.1769  62.8105
 2018-May-22 03:22 Nm  223.0204  62.5317
 2018-May-22 03:24 Nm  223.8494  62.2486
 2018-May-22 03:26 Nm  224.6638  61.9614
 2018-May-22 03:28 Nm  225.4641  61.6701
 2018-May-22 03:30 Nm  226.2505  61.3749
 2018-May-22 03:32 Nm  227.0232  61.0760
 2018-May-22 03:34 Nm  227.7824  60.7734
 2018-May-22 03:36 Nm  228.5285  60.4673
 2018-May-22 03:38 Nm  229.2617  60.1578
 2018-May-22 03:40 Nm  229.9823  59.8450
 2018-May-22 03:42 Nm  230.6905  59.5289
 2018-May-22 03:44 Nm  231.3866  59.2098
 2018-May-22 03:46 Nm  232.0708  58.8877
 2018-May-22 03:48 Nm  232.7435  58.5626
 2018-May-22 03:50 Nm  233.4049  58.2348
 2018-May-22 03:52 Nm  234.0552  57.9042
 2018-May-22 03:54 Nm  234.6948  57.5710
 2018-May-22 03:56 Am  235.3238  57.2352
 2018-May-22 03:58 Am  235.9425  56.8970
 2018-May-22 04:00 Am  236.5512  56.5564
 2018-May-22 04:02 Am  237.1501  56.2135
 2018-May-22 04:04 Am  237.7394  55.8684
 2018-May-22 04:06 Am  238.3195  55.5211
 2018-May-22 04:08 Am  238.8904  55.1717
 2018-May-22 04:10 Am  239.4525  54.8203
 2018-May-22 04:12 Am  240.0059  54.4669
 2018-May-22 04:14 Am  240.5509  54.1117
 2018-May-22 04:16 Am  241.0877  53.7546
 2018-May-22 04:18 Am  241.6165  53.3957
 2018-May-22 04:20 Am  242.1375  53.0351
 2018-May-22 04:22 Am  242.6509  52.6728
 2018-May-22 04:24 Am  243.1569  52.3090
 2018-May-22 04:26 Am  243.6556  51.9435
 2018-May-22 04:28 Am  244.1474  51.5766
 2018-May-22 04:30 Am  244.6323  51.2082
 2018-May-22 04:32  m  245.1105  50.8384
 2018-May-22 04:34  m  245.5822  50.4672
 2018-May-22 04:36  m  246.0476  50.0947
 2018-May-22 04:38  m  246.5068  49.7209
 2018-May-22 04:40  m  246.9600  49.3459
 2018-May-22 04:42  m  247.4074  48.9697
 2018-May-22 04:44  m  247.8490  48.5923
 2018-May-22 04:46  m  248.2851  48.2138
